STARLINK-2675_new
1 18470C 21040AU  21326.15762848 -.00018897  00000-0 -12661-2 0  3262
2 18470  53.0562  33.0274 0001351  76.1996 358.9018 15.06419112    18
STARLINK-2675_old
1 28470C 21040AU  21325.12691506  .00006667  00000-0  44667-3 0  3251
2 28470  53.0561  37.6543 0001315  77.4717 164.9214 15.06397033    11
